[{"ORDINAL":"1","COMMENT":"GENERATED VIA SPACETRACK.ORG API","ORIGINATOR":"JSPOC","NORAD_CAT_ID":"21930","OBJECT_NAME":"NAVSTAR 25 (USA 80)","OBJECT_TYPE":"PAYLOAD","CLASSIFICATION_TYPE":"U","INTLDES":"92019A","EPOCH":"2016-06-22 23:54:16","EPOCH_MICROSECONDS":"911648","MEAN_MOTION":"1.87659629","ECCENTRICITY":"0.0031654","INCLINATION":"55.055","RA_OF_ASC_NODE":"71.2091","ARG_OF_PERICENTER":"276.6499","MEAN_ANOMALY":"345.8684","EPHEMERIS_TYPE":"0","ELEMENT_SET_NO":"999","REV_AT_EPOCH":"17300","BSTAR":"0","MEAN_MOTION_DOT":"-3.5e-07","MEAN_MOTION_DDOT":"0","FILE":"2050733","TLE_LINE0":"0 NAVSTAR 25 (USA 80)","TLE_LINE1":"1 21930U 92019A   16174.99602907 -.00000035  00000-0  00000+0 0  9995","TLE_LINE2":"2 21930  55.0550  71.2091 0031654 276.6499 345.8684  1.87659629173001","OBJECT_ID":"1992-019A","OBJECT_NUMBER":"21930","SEMIMAJOR_AXIS":"27764.377","PERIOD":"767.346","APOGEE":"21474.127","PERIGEE":"21298.357"},{"ORDINAL":"1","COMMENT":"GENERATED VIA SPACETRACK.ORG API","ORIGINATOR":"JSPOC","NORAD_CAT_ID":"21937","OBJECT_NAME":"COSMOS 2184","OBJECT_TYPE":"PAYLOAD","CLASSIFICATION_TYPE":"U","INTLDES":"92020A","EPOCH":"2016-06-22 21:34:36","EPOCH_MICROSECONDS":"979968","MEAN_MOTION":"13.73129457","ECCENTRICITY":"0.0032723","INCLINATION":"82.9337","RA_OF_ASC_NODE":"291.9376","ARG_OF_PERICENTER":"209.3582","MEAN_ANOMALY":"274.2213","EPHEMERIS_TYPE":"0","ELEMENT_SET_NO":"999","REV_AT_EPOCH":"21214","BSTAR":"2.489e-05","MEAN_MOTION_DOT":"3.8e-07","MEAN_MOTION_DDOT":"0","FILE":"2050379","TLE_LINE0":"0 COSMOS 2184","TLE_LINE1":"1 21937U 92020A   16174.89903912  .00000038  00000-0  24890-4 0  9993","TLE_LINE2":"2 21937  82.9337 291.9376 0032723 209.3582 274.2213 13.73129457212142","OBJECT_ID":"1992-020A","OBJECT_NUMBER":"21937","SEMIMAJOR_AXIS":"7366.494","PERIOD":"104.869","APOGEE":"1012.464","PERIGEE":"964.253"},{"ORDINAL":"1","COMMENT":"GENERATED VIA SPACETRACK.ORG API","ORIGINATOR":"JSPOC","NORAD_CAT_ID":"21939","OBJECT_NAME":"TELECOM 2B","OBJECT_TYPE":"PAYLOAD","CLASSIFICATION_TYPE":"U","INTLDES":"92021A","EPOCH":"2016-06-22 05:26:12","EPOCH_MICROSECONDS":"645600","MEAN_MOTION":"0.99525195","ECCENTRICITY":"0.0016405","INCLINATION":"12.5465","RA_OF_ASC_NODE":"33.8099","ARG_OF_PERICENTER":"38.1146","MEAN_ANOMALY":"132.6521","EPHEMERIS_TYPE":"0","ELEMENT_SET_NO":"999","REV_AT_EPOCH":"8109","BSTAR":"0","MEAN_MOTION_DOT":"7.2e-07","MEAN_MOTION_DDOT":"0","FILE":"2050785","TLE_LINE0":"0 TELECOM 2B","TLE_LINE1":"1 21939U 92021A   16174.22653525 +.00000072 +00000-0 +00000-0 0  9996","TLE_LINE2":"2 21939 012.5465 033.8099 0016405 038.1146 132.6521 00.99525195081093","OBJECT_ID":"1992-021A","OBJECT_NUMBER":"21939","SEMIMAJOR_AXIS":"42375.335","PERIOD":"1446.869","APOGEE":"36066.717","PERIGEE":"35927.683"},{"ORDINAL":"1","COMMENT":"GENERATED VIA SPACETRACK.ORG API","ORIGINATOR":"JSPOC","NORAD_CAT_ID":"21940","OBJECT_NAME":"INMARSAT 2-F4","OBJECT_TYPE":"PAYLOAD","CLASSIFICATION_TYPE":"U","INTLDES":"92021B","EPOCH":"2016-06-23 00:09:18","EPOCH_MICROSECONDS":"634752","MEAN_MOTION":"0.97942781","ECCENTRICITY":"0.0004393","INCLINATION":"9.0062","RA_OF_ASC_NODE":"34.3549","ARG_OF_PERICENTER":"82.475","MEAN_ANOMALY":"212.2068","EPHEMERIS_TYPE":"0","ELEMENT_SET_NO":"999","REV_AT_EPOCH":"8818","BSTAR":"0","MEAN_MOTION_DOT":"-3.7e-07","MEAN_MOTION_DDOT":"0","FILE":"2050736","TLE_LINE0":"0 INMARSAT 2-F4","TLE_LINE1":"1 21940U 92021B   16175.00646568 -.00000037  00000-0  00000+0 0  9995","TLE_LINE2":"2 21940   9.0062  34.3549 0004393  82.4750 212.2068  0.97942781 88181","OBJECT_ID":"1992-021B","OBJECT_NUMBER":"21940","SEMIMAJOR_AXIS":"42830.540","PERIOD":"1470.246","APOGEE":"36471.220","PERIGEE":"36433.589"},{"ORDINAL":"1","COMMENT":"GENERATED VIA SPACETRACK.ORG API","ORIGINATOR":"JSPOC","NORAD_CAT_ID":"21964","OBJECT_NAME":"PALAPA B4","OBJECT_TYPE":"PAYLOAD","CLASSIFICATION_TYPE":"U","INTLDES":"92027A","EPOCH":"2016-06-22 17:35:14","EPOCH_MICROSECONDS":"35776","MEAN_MOTION":"0.9992799","ECCENTRICITY":"0.0001429","INCLINATION":"9.3821","RA_OF_ASC_NODE":"43.6228","ARG_OF_PERICENTER":"249.7959","MEAN_ANOMALY":"315.2952","EPHEMERIS_TYPE":"0","ELEMENT_SET_NO":"999","REV_AT_EPOCH":"1074","BSTAR":"0","MEAN_MOTION_DOT":"-1.7e-07","MEAN_MOTION_DDOT":"0","FILE":"2050785","TLE_LINE0":"0 PALAPA B4","TLE_LINE1":"1 21964U 92027A   16174.73280134 -.00000017 +00000-0 +00000-0 0  9998","TLE_LINE2":"2 21964 009.3821 043.6228 0001429 249.7959 315.2952 00.99927990010746","OBJECT_ID":"1992-027A","OBJECT_NUMBER":"21964","SEMIMAJOR_AXIS":"42261.386","PERIOD":"1441.037","APOGEE":"35889.290","PERIGEE":"35877.212"},{"ORDINAL":"1","COMMENT":"GENERATED VIA SPACETRACK.ORG API","ORIGINATOR":"JSPOC","NORAD_CAT_ID":"21976","OBJECT_NAME":"COSMOS 2187","OBJECT_TYPE":"PAYLOAD","CLASSIFICATION_TYPE":"U","INTLDES":"92030A","EPOCH":"2016-06-22 22:29:49","EPOCH_MICROSECONDS":"195680","MEAN_MOTION":"12.55681436","ECCENTRICITY":"0.0050004","INCLINATION":"74.0036","RA_OF_ASC_NODE":"334.8218","ARG_OF_PERICENTER":"109.9661","MEAN_ANOMALY":"7.0066","EPHEMERIS_TYPE":"0","ELEMENT_SET_NO":"999","REV_AT_EPOCH":"10253","BSTAR":"-4.4783e-05","MEAN_MOTION_DOT":"-2.3e-07","MEAN_MOTION_DDOT":"0","FILE":"2050785","TLE_LINE0":"0 COSMOS 2187","TLE_LINE1":"1 21976U 92030A   16174.93737495 -.00000023 +00000-0 -44783-4 0  9992","TLE_LINE2":"2 21976 074.0036 334.8218 0050004 109.9661 007.0066 12.55681436102538","OBJECT_ID":"1992-030A","OBJECT_NUMBER":"21976","SEMIMAJOR_AXIS":"7818.957","PERIOD":"114.678","APOGEE":"1479.920","PERIGEE":"1401.724"},{"ORDINAL":"1","COMMENT":"GENERATED VIA SPACETRACK.ORG API","ORIGINATOR":"JSPOC","NORAD_CAT_ID":"21977","OBJECT_NAME":"COSMOS 2188","OBJECT_TYPE":"PAYLOAD","CLASSIFICATION_TYPE":"U","INTLDES":"92030B","EPOCH":"2016-06-22 20:08:33","EPOCH_MICROSECONDS":"197568","MEAN_MOTION":"12.57496177","ECCENTRICITY":"0.0057836","INCLINATION":"74.0032","RA_OF_ASC_NODE":"294.9005","ARG_OF_PERICENTER":"55.4382","MEAN_ANOMALY":"61.9886","EPHEMERIS_TYPE":"0","ELEMENT_SET_NO":"999","REV_AT_EPOCH":"10437","BSTAR":"-2.6061e-05","MEAN_MOTION_DOT":"-2e-07","MEAN_MOTION_DDOT":"0","FILE":"2050381","TLE_LINE0":"0 COSMOS 2188","TLE_LINE1":"1 21977U 92030B   16174.83927312 -.00000020  00000-0 -26061-4 0  9997","TLE_LINE2":"2 21977  74.0032 294.9005 0057836  55.4382  61.9886 12.57496177104371","OBJECT_ID":"1992-030B","OBJECT_NUMBER":"21977","SEMIMAJOR_AXIS":"7811.433","PERIOD":"114.513","APOGEE":"1478.476","PERIGEE":"1388.120"},{"ORDINAL":"1","COMMENT":"GENERATED VIA SPACETRACK.ORG API","ORIGINATOR":"JSPOC","NORAD_CAT_ID":"21978","OBJECT_NAME":"COSMOS 2189","OBJECT_TYPE":"PAYLOAD","CLASSIFICATION_TYPE":"U","INTLDES":"92030C","EPOCH":"2016-06-22 23:51:05","EPOCH_MICROSECONDS":"788800","MEAN_MOTION":"12.53974413","ECCENTRICITY":"0.0040427","INCLINATION":"74.0035","RA_OF_ASC_NODE":"12.4123","ARG_OF_PERICENTER":"151.8612","MEAN_ANOMALY":"320.0152","EPHEMERIS_TYPE":"0","ELEMENT_SET_NO":"999","REV_AT_EPOCH":"10131","BSTAR":"2.1557e-05","MEAN_MOTION_DOT":"-1.3e-07","MEAN_MOTION_DDOT":"0","FILE":"2050532","TLE_LINE0":"0 COSMOS 2189","TLE_LINE1":"1 21978U 92030C   16174.99381700 -.00000013  00000-0  21557-4 0  9996","TLE_LINE2":"2 21978  74.0035  12.4123 0040427 151.8612 320.0152 12.53974413101310","OBJECT_ID":"1992-030C","OBJECT_NUMBER":"21978","SEMIMAJOR_AXIS":"7826.051","PERIOD":"114.834","APOGEE":"1479.555","PERIGEE":"1416.278"},{"ORDINAL":"1","COMMENT":"GENERATED VIA SPACETRACK.ORG API","ORIGINATOR":"JSPOC","NORAD_CAT_ID":"21979","OBJECT_NAME":"COSMOS 2190","OBJECT_TYPE":"PAYLOAD","CLASSIFICATION_TYPE":"U","INTLDES":"92030D","EPOCH":"2016-06-23 03:37:33","EPOCH_MICROSECONDS":"813984","MEAN_MOTION":"12.52231908","ECCENTRICITY":"0.0031809","INCLINATION":"74.004","RA_OF_ASC_NODE":"50.31","ARG_OF_PERICENTER":"199.6467","MEAN_ANOMALY":"329.911","EPHEMERIS_TYPE":"0","ELEMENT_SET_NO":"999","REV_AT_EPOCH":"9980","BSTAR":"8.2277e-05","MEAN_MOTION_DOT":"-3e-08","MEAN_MOTION_DDOT":"0","FILE":"2050519","TLE_LINE0":"0 COSMOS 2190","TLE_LINE1":"1 21979U 92030D   16175.15108581 -.00000003  00000-0  82277-4 0  9995","TLE_LINE2":"2 21979  74.0040  50.3100 0031809 199.6467 329.9110 12.52231908 99801","OBJECT_ID":"1992-030D","OBJECT_NUMBER":"21979","SEMIMAJOR_AXIS":"7833.310","PERIOD":"114.994","APOGEE":"1480.092","PERIGEE":"1430.258"},{"ORDINAL":"1","COMMENT":"GENERATED VIA SPACETRACK.ORG API","ORIGINATOR":"JSPOC","NORAD_CAT_ID":"21980","OBJECT_NAME":"COSMOS 2191","OBJECT_TYPE":"PAYLOAD","CLASSIFICATION_TYPE":"U","INTLDES":"92030E","EPOCH":"2016-06-22 14:44:16","EPOCH_MICROSECONDS":"182816","MEAN_MOTION":"12.44523969","ECCENTRICITY":"0.0017856","INCLINATION":"74.0016","RA_OF_ASC_NODE":"219.1092","ARG_OF_PERICENTER":"138.5437","MEAN_ANOMALY":"19.4206","EPHEMERIS_TYPE":"0","ELEMENT_SET_NO":"999","REV_AT_EPOCH":"9248","BSTAR":"0.00011365","MEAN_MOTION_DOT":"0","MEAN_MOTION_DDOT":"0","FILE":"2050785","TLE_LINE0":"0 COSMOS 2191","TLE_LINE1":"1 21980U 92030E   16174.61407619 +.00000000 +00000-0 +11365-3 0  9996","TLE_LINE2":"2 21980 074.0016 219.1092 0017856 138.5437 019.4206 12.44523969092482","OBJECT_ID":"1992-030E","OBJECT_NUMBER":"21980","SEMIMAJOR_AXIS":"7865.620","PERIOD":"115.706","APOGEE":"1501.530","PERIGEE":"1473.440"}]